
[{"ORDINAL":"2","COMMENT":"GENERATED VIA SPACETRACK.ORG API","ORIGINATOR":"JSPOC","NORAD_CAT_ID":"40943","OBJECT_NAME":"ARIANE 5 DEB (SYLDA)","OBJECT_TYPE":"DEBRIS","CLASSIFICATION_TYPE":"U","INTLDES":"15054D","EPOCH":"2016-03-24 10:16:13","EPOCH_MICROSECONDS":"736064","MEAN_MOTION":"2.39953789","ECCENTRICITY":"0.7208149","INCLINATION":"6.1593","RA_OF_ASC_NODE":"69.7483","ARG_OF_PERICENTER":"325.0443","MEAN_ANOMALY":"3.9981","EPHEMERIS_TYPE":"0","ELEMENT_SET_NO":"999","REV_AT_EPOCH":"407","BSTAR":"0.010689","MEAN_MOTION_DOT":"0.00129208","MEAN_MOTION_DDOT":"0","FILE":"2011476","TLE_LINE0":"0 ARIANE 5 DEB (SYLDA)","TLE_LINE1":"1 40943U 15054D   16084.42793676  .00129208  00000-0  10689-1 0  9995","TLE_LINE2":"2 40943   6.1593  69.7483 7208149 325.0443   3.9981  2.39953789  4071","OBJECT_ID":"2015-054D","OBJECT_NUMBER":"40943","SEMIMAJOR_AXIS":"23567.676","PERIOD":"600.115","APOGEE":"34177.473","PERIGEE":"201.609"},{"ORDINAL":"1","COMMENT":"GENERATED VIA SPACETRACK.ORG API","ORIGINATOR":"JSPOC","NORAD_CAT_ID":"40943","OBJECT_NAME":"ARIANE 5 DEB (SYLDA)","OBJECT_TYPE":"DEBRIS","CLASSIFICATION_TYPE":"U","INTLDES":"15054D","EPOCH":"2016-03-24 10:16:16","EPOCH_MICROSECONDS":"127616","MEAN_MOTION":"2.39966147","ECCENTRICITY":"0.7209589","INCLINATION":"6.1384","RA_OF_ASC_NODE":"69.8895","ARG_OF_PERICENTER":"324.9057","MEAN_ANOMALY":"4.0184","EPHEMERIS_TYPE":"0","ELEMENT_SET_NO":"999","REV_AT_EPOCH":"407","BSTAR":"0.0091995","MEAN_MOTION_DOT":"0.00123859","MEAN_MOTION_DDOT":"0","FILE":"2011378","TLE_LINE0":"0 ARIANE 5 DEB (SYLDA)","TLE_LINE1":"1 40943U 15054D   16084.42796444  .00123859  00000-0  91995-2 0  9997","TLE_LINE2":"2 40943   6.1384  69.8895 7209589 324.9057   4.0184  2.39966147  4074","OBJECT_ID":"2015-054D","OBJECT_NUMBER":"40943","SEMIMAJOR_AXIS":"23566.867","PERIOD":"600.084","APOGEE":"34179.474","PERIGEE":"197.989"},{"ORDINAL":"1","COMMENT":"GENERATED VIA SPACETRACK.ORG API","ORIGINATOR":"JSPOC","NORAD_CAT_ID":"41040","OBJECT_NAME":"YAOGAN 28 DEB","OBJECT_TYPE":"DEBRIS","CLASSIFICATION_TYPE":"U","INTLDES":"15064C","EPOCH":"2016-03-24 14:01:18","EPOCH_MICROSECONDS":"135552","MEAN_MOTION":"15.34122863","ECCENTRICITY":"0.0019068","INCLINATION":"97.2582","RA_OF_ASC_NODE":"215.4153","ARG_OF_PERICENTER":"129.6028","MEAN_ANOMALY":"230.6845","EPHEMERIS_TYPE":"0","ELEMENT_SET_NO":"999","REV_AT_EPOCH":"1984","BSTAR":"0.00016168","MEAN_MOTION_DOT":"5.29e-05","MEAN_MOTION_DDOT":"0","FILE":"2011440","TLE_LINE0":"0 YAOGAN 28 DEB","TLE_LINE1":"1 41040U 15064C   16084.58423768  .00005290  00000-0  16168-3 0  9998","TLE_LINE2":"2 41040  97.2582 215.4153 0019068 129.6028 230.6845 15.34122863 19842","OBJECT_ID":"2015-064C","OBJECT_NUMBER":"41040","SEMIMAJOR_AXIS":"6841.664","PERIOD":"93.864","APOGEE":"476.574","PERIGEE":"450.483"}]